{
  "type": "FeatureCollection",
  "features": [
    {
      "type": "Feature",
      "properties": {
        "norad_id": 29876,
        "name": "FENGYUN 1C DEB",
        "group": "fengyun-1c-debris",
        "lat": -54.89732802964754,
        "lon": 44.093139375264215,
        "alt_km": 830.499854068632,
        "timestamp": "2025-12-07T03:52:32.768905+00:00",
        "meta_object_name": "FENGYUN 1C DEB",
        "meta_object_id": "1999-025FW",
        "meta_epoch": "2025-12-06T15:20:57.042240",
        "meta_mean_motion": 14.20291731,
        "meta_eccentricity": 0.00618502,
        "meta_inclination": 98.3341,
        "meta_ra_of_asc_node": 31.5639,
        "meta_arg_of_pericenter": 35.0474,
        "meta_mean_anomaly": 122.763,
        "meta_ephemeris_type": 0,
        "meta_classification_type": "U",
        "meta_norad_cat_id": 29876,
        "meta_element_set_no": 999,
        "meta_rev_at_epoch": 97830,
        "meta_bstar": 0.00025953938,
        "meta_mean_motion_dot": 5.25e-06,
        "meta_mean_motion_ddot": 0,
        "tle_line1": "1 29876U 99025FW  25340.63954910  .00000525  00000+0  25954-3 0  9997",
        "tle_line2": "2 29876  98.3341  31.5639 0061850  35.0474 122.7630 14.20291731978300"
      },
      "geometry": {
        "type": "Point",
        "coordinates": [
          44.093139375264215,
          -54.89732802964754
        ]
      }
    },
    {
      "type": "Feature",
      "properties": {
        "norad_id": 29877,
        "name": "FENGYUN 1C DEB",
        "group": "fengyun-1c-debris",
        "lat": 73.05028127633983,
        "lon": -42.90188812957757,
        "alt_km": 832.94524389042,
        "timestamp": "2025-12-07T03:52:32.768916+00:00",
        "meta_object_name": "FENGYUN 1C DEB",
        "meta_object_id": "1999-025FX",
        "meta_epoch": "2025-12-06T11:25:04.627200",
        "meta_mean_motion": 14.24770935,
        "meta_eccentricity": 0.00456166,
        "meta_inclination": 98.5371,
        "meta_ra_of_asc_node": 345.96,
        "meta_arg_of_pericenter": 236.9513,
        "meta_mean_anomaly": 283.2682,
        "meta_ephemeris_type": 0,
        "meta_classification_type": "U",
        "meta_norad_cat_id": 29877,
        "meta_element_set_no": 999,
        "meta_rev_at_epoch": 97884,
        "meta_bstar": 0.00086117833,
        "meta_mean_motion_dot": 1.986e-05,
        "meta_mean_motion_ddot": 0,
        "tle_line1": "1 29877U 99025FX  25340.47574800  .00001986  00000+0  86118-3 0  9997",
        "tle_line2": "2 29877  98.5371 345.9600 0045616 236.9513 283.2682 14.24770935978845"
      },
      "geometry": {
        "type": "Point",
        "coordinates": [
          -42.90188812957757,
          73.05028127633983
        ]
      }
    },
    {
      "type": "Feature",
      "properties": {
        "norad_id": 29878,
        "name": "FENGYUN 1C DEB",
        "group": "fengyun-1c-debris",
        "lat": -32.09128485759214,
        "lon": -30.188622375092752,
        "alt_km": 528.1312761064937,
        "timestamp": "2025-12-07T03:52:32.768927+00:00",
        "meta_object_name": "FENGYUN 1C DEB",
        "meta_object_id": "1999-025FY",
        "meta_epoch": "2025-12-06T11:00:36.591840",
        "meta_mean_motion": 15.07690667,
        "meta_eccentricity": 0.00309085,
        "meta_inclination": 96.9478,
        "meta_ra_of_asc_node": 153.5617,
        "meta_arg_of_pericenter": 197.7899,
        "meta_mean_anomaly": 162.2251,
        "meta_ephemeris_type": 0,
        "meta_classification_type": "U",
        "meta_norad_cat_id": 29878,
        "meta_element_set_no": 999,
        "meta_rev_at_epoch": 98553,
        "meta_bstar": 0.012767679,
        "meta_mean_motion_dot": 0.00202116,
        "meta_mean_motion_ddot": 0,
        "tle_line1": "1 29878U 99025FY  25340.45875685  .00202116  00000+0  12768-1 0  9997",
        "tle_line2": "2 29878  96.9478 153.5617 0030908 197.7899 162.2251 15.07690667985533"
      },
      "geometry": {
        "type": "Point",
        "coordinates": [
          -30.188622375092752,
          -32.09128485759214
        ]
      }
    },
    {
      "type": "Feature",
      "properties": {
        "norad_id": 29880,
        "name": "FENGYUN 1C DEB",
        "group": "fengyun-1c-debris",
        "lat": -51.97662882842279,
        "lon": 69.70922960228528,
        "alt_km": 991.5181862883383,
        "timestamp": "2025-12-07T03:52:32.768937+00:00",
        "meta_object_name": "FENGYUN 1C DEB",
        "meta_object_id": "1999-025GA",
        "meta_epoch": "2025-12-06T06:49:15.871872",
        "meta_mean_motion": 13.93878948,
        "meta_eccentricity": 0.02312908,
        "meta_inclination": 98.1944,
        "meta_ra_of_asc_node": 259.5491,
        "meta_arg_of_pericenter": 119.5764,
        "meta_mean_anomaly": 30.9759,
        "meta_ephemeris_type": 0,
        "meta_classification_type": "U",
        "meta_norad_cat_id": 29880,
        "meta_element_set_no": 999,
        "meta_rev_at_epoch": 95472,
        "meta_bstar": 0.0014394399,
        "meta_mean_motion_dot": 2.336e-05,
        "meta_mean_motion_ddot": 0,
        "tle_line1": "1 29880U 99025GA  25340.28421148  .00002336  00000+0  14394-2 0  9992",
        "tle_line2": "2 29880  98.1944 259.5491 0231290 119.5764  30.9759 13.93878948954729"
      },
      "geometry": {
        "type": "Point",
        "coordinates": [
          69.70922960228528,
          -51.97662882842279
        ]
      }
    },
    {
      "type": "Feature",
      "properties": {
        "norad_id": 29881,
        "name": "FENGYUN 1C DEB",
        "group": "fengyun-1c-debris",
        "lat": -68.12262379666228,
        "lon": -23.58223854951035,
        "alt_km": 1241.2360261947124,
        "timestamp": "2025-12-07T03:52:32.768947+00:00",
        "meta_object_name": "FENGYUN 1C DEB",
        "meta_object_id": "1999-025GB",
        "meta_epoch": "2025-12-05T20:43:58.848384",
        "meta_mean_motion": 13.59573544,
        "meta_eccentricity": 0.02918736,
        "meta_inclination": 98.7213,
        "meta_ra_of_asc_node": 312.7864,
        "meta_arg_of_pericenter": 89.6378,
        "meta_mean_anomaly": 334.1609,
        "meta_ephemeris_type": 0,
        "meta_classification_type": "U",
        "meta_norad_cat_id": 29881,
        "meta_element_set_no": 999,
        "meta_rev_at_epoch": 93141,
        "meta_bstar": 0.0033434856,
        "meta_mean_motion_dot": 3.245e-05,
        "meta_mean_motion_ddot": 0,
        "tle_line1": "1 29881U 99025GB  25339.86387556  .00003245  00000+0  33435-2 0  9996",
        "tle_line2": "2 29881  98.7213 312.7864 0291873  89.6378 334.1609 13.59573544931412"
      },
      "geometry": {
        "type": "Point",
        "coordinates": [
          -23.58223854951035,
          -68.12262379666228
        ]
      }
    },
    {
      "type": "Feature",
      "properties": {
        "norad_id": 29884,
        "name": "FENGYUN 1C DEB",
        "group": "fengyun-1c-debris",
        "lat": 71.97589912806477,
        "lon": -17.43287890716742,
        "alt_km": 743.9630368046019,
        "timestamp": "2025-12-07T03:52:32.768958+00:00",
        "meta_object_name": "FENGYUN 1C DEB",
        "meta_object_id": "1999-025GE",
        "meta_epoch": "2025-12-06T13:16:27.890112",
        "meta_mean_motion": 14.40259836,
        "meta_eccentricity": 0.00445291,
        "meta_inclination": 99.6029,
        "meta_ra_of_asc_node": 13.2381,
        "meta_arg_of_pericenter": 154.5956,
        "meta_mean_anomaly": 7.9045,
        "meta_ephemeris_type": 0,
        "meta_classification_type": "U",
        "meta_norad_cat_id": 29884,
        "meta_element_set_no": 999,
        "meta_rev_at_epoch": 98460,
        "meta_bstar": 0.0012009343,
        "meta_mean_motion_dot": 3.796e-05,
        "meta_mean_motion_ddot": 0,
        "tle_line1": "1 29884U 99025GE  25340.55310058  .00003796  00000+0  12009-2 0  9995",
        "tle_line2": "2 29884  99.6029  13.2381 0044529 154.5956   7.9045 14.40259836984609"
      },
      "geometry": {
        "type": "Point",
        "coordinates": [
          -17.43287890716742,
          71.97589912806477
        ]
      }
    },
    {
      "type": "Feature",
      "properties": {
        "norad_id": 29885,
        "name": "FENGYUN 1C DEB",
        "group": "fengyun-1c-debris",
        "lat": 69.43997798480045,
        "lon": 119.62470570537793,
        "alt_km": 812.4735353312017,
        "timestamp": "2025-12-07T03:52:32.768969+00:00",
        "meta_object_name": "FENGYUN 1C DEB",
        "meta_object_id": "1999-025GF",
        "meta_epoch": "2025-12-06T14:36:07.730784",
        "meta_mean_motion": 14.13576435,
        "meta_eccentricity": 0.01180054,
        "meta_inclination": 98.3546,
        "meta_ra_of_asc_node": 276.0422,
        "meta_arg_of_pericenter": 181.9323,
        "meta_mean_anomaly": 355.264,
        "meta_ephemeris_type": 0,
        "meta_classification_type": "U",
        "meta_norad_cat_id": 29885,
        "meta_element_set_no": 999,
        "meta_rev_at_epoch": 97370,
        "meta_bstar": 0.0002282626,
        "meta_mean_motion_dot": 4.2e-06,
        "meta_mean_motion_ddot": 0,
        "tle_line1": "1 29885U 99025GF  25340.60842281  .00000420  00000+0  22826-3 0  9990",
        "tle_line2": "2 29885  98.3546 276.0422 0118005 181.9323 355.2640 14.13576435973704"
      },
      "geometry": {
        "type": "Point",
        "coordinates": [
          119.62470570537793,
          69.43997798480045
        ]
      }
    }
  ]
}